SAOCOM 1A               
1 43641U 18076A   26116.82803356  .00001004  00000+0  13262-3 0  9992
2 43641  97.8906 304.3203 0001573  89.7538 270.3855 14.82156863408499
H-2A R/B                
1 43682U 18084L   26116.87087043  .00019059  00000+0  42663-3 0  9994
2 43682  98.8661 344.6183 0023455 212.8799 147.0987 15.43248834413207
SAOCOM 1B               
1 46265U 20059A   26116.79173404  .00000288  00000+0  42758-4 0  9997
2 46265  97.8897 303.3780 0001520  84.9403 275.1983 14.82142151305870
CSS (TIANHE)            
1 48274U 21035A   26116.80095385  .00032716  00000+0  35185-3 0  9993
2 48274  41.4670 274.9071 0006843 279.6216  80.3850 15.63016874285137
COSMOS 2550             
1 48865U 21056A   26116.11885426 -.00000081  00000+0  33632-5 0  9997
2 48865  67.1429 257.4092 0008438 269.8521  90.1667 15.33825107270730
CZ-2C R/B               
1 52794U 22058K   26116.35469269  .00050561  00000+0  64598-3 0  9995
2 52794  50.1870  72.4272 0038753  45.0100 315.4002 15.57787766217554
CZ-2C R/B               
1 54039U 22132E   26116.73768755  .00057075  00000+0  54963-3 0  9998
2 54039  97.2935 121.6795 0012865 267.4885  92.4903 15.66262370197889
GSLV R/B                
1 54149U 22138AN  26116.51782254  .00002478  00000+0  21199-3 0  9994
2 54149  87.3814 150.3363 0020475 344.7378  15.3233 14.97030943191087
XRISM                   
1 57800U 23137A   26116.77292252  .00006684  00000+0  37384-3 0  9999
2 57800  31.0026 332.5280 0007550 165.1765 194.9096 15.12013707145077
ACS3                    
1 59588U 24077B   26116.77296058  .00039866  00000+0  30659-1 0  9990
2 59588  97.1821  47.0845 0060311 345.4053  14.5369 13.91960921100884
HTV-X1                  
1 66174U 25241A   26112.99220554  .00004413  00000+0  14900-3 0  9994
2 66174  51.6353 219.4042 0007821 344.1053  15.9682 15.32728944 27734
SZ-21 MODULE            
1 66515U 25246C   26116.70347336  .00045980  00000+0  33789-3 0  9999
2 66515  41.4732 266.9520 0003940 331.6776  28.3852 15.72262877 25625
