[{"OBJECT_NAME":"SAOCOM 1A","OBJECT_ID":"2018-076A","EPOCH":"2026-04-26T19:52:22.099584","MEAN_MOTION":14.82156863,"ECCENTRICITY":0.0001573,"INCLINATION":97.8906,"RA_OF_ASC_NODE":304.3203,"ARG_OF_PERICENTER":89.7538,"MEAN_ANOMALY":270.3855,"EPHEMERIS_TYPE":0,"CLASSIFICATION_TYPE":"U","NORAD_CAT_ID":43641,"ELEMENT_SET_NO":999,"REV_AT_EPOCH":40849,"BSTAR":0.00013262,"MEAN_MOTION_DOT":1.004e-5,"MEAN_MOTION_DDOT":0},{"OBJECT_NAME":"H-2A R/B","OBJECT_ID":"2018-084L","EPOCH":"2026-04-26T20:54:03.205152","MEAN_MOTION":15.43248834,"ECCENTRICITY":0.0023455,"INCLINATION":98.8661,"RA_OF_ASC_NODE":344.6183,"ARG_OF_PERICENTER":212.8799,"MEAN_ANOMALY":147.0987,"EPHEMERIS_TYPE":0,"CLASSIFICATION_TYPE":"U","NORAD_CAT_ID":43682,"ELEMENT_SET_NO":999,"REV_AT_EPOCH":41320,"BSTAR":0.00042663,"MEAN_MOTION_DOT":0.00019059,"MEAN_MOTION_DDOT":0},{"OBJECT_NAME":"SAOCOM 1B","OBJECT_ID":"2020-059A","EPOCH":"2026-04-26T19:00:05.821056","MEAN_MOTION":14.82142151,"ECCENTRICITY":0.000152,"INCLINATION":97.8897,"RA_OF_ASC_NODE":303.378,"ARG_OF_PERICENTER":84.9403,"MEAN_ANOMALY":275.1983,"EPHEMERIS_TYPE":0,"CLASSIFICATION_TYPE":"U","NORAD_CAT_ID":46265,"ELEMENT_SET_NO":999,"REV_AT_EPOCH":30587,"BSTAR":4.2758e-5,"MEAN_MOTION_DOT":2.88e-6,"MEAN_MOTION_DDOT":0},{"OBJECT_NAME":"CSS (TIANHE)","OBJECT_ID":"2021-035A","EPOCH":"2026-04-26T19:13:22.412640","MEAN_MOTION":15.63016874,"ECCENTRICITY":0.0006843,"INCLINATION":41.467,"RA_OF_ASC_NODE":274.9071,"ARG_OF_PERICENTER":279.6216,"MEAN_ANOMALY":80.385,"EPHEMERIS_TYPE":0,"CLASSIFICATION_TYPE":"U","NORAD_CAT_ID":48274,"ELEMENT_SET_NO":999,"REV_AT_EPOCH":28513,"BSTAR":0.00035185,"MEAN_MOTION_DOT":0.00032716,"MEAN_MOTION_DDOT":0},{"OBJECT_NAME":"COSMOS 2550","OBJECT_ID":"2021-056A","EPOCH":"2026-04-26T02:51:09.008064","MEAN_MOTION":15.33825107,"ECCENTRICITY":0.00084382,"INCLINATION":67.1429,"RA_OF_ASC_NODE":257.4092,"ARG_OF_PERICENTER":269.8521,"MEAN_ANOMALY":90.1667,"EPHEMERIS_TYPE":0,"CLASSIFICATION_TYPE":"U","NORAD_CAT_ID":48865,"ELEMENT_SET_NO":999,"REV_AT_EPOCH":27073,"BSTAR":3.36319e-6,"MEAN_MOTION_DOT":-8.1e-7,"MEAN_MOTION_DDOT":0},{"OBJECT_NAME":"CZ-2C R/B","OBJECT_ID":"2022-058K","EPOCH":"2026-04-26T08:30:45.448416","MEAN_MOTION":15.57787766,"ECCENTRICITY":0.00387535,"INCLINATION":50.187,"RA_OF_ASC_NODE":72.4272,"ARG_OF_PERICENTER":45.01,"MEAN_ANOMALY":315.4002,"EPHEMERIS_TYPE":0,"CLASSIFICATION_TYPE":"U","NORAD_CAT_ID":52794,"ELEMENT_SET_NO":999,"REV_AT_EPOCH":21755,"BSTAR":0.00064597566,"MEAN_MOTION_DOT":0.00050561,"MEAN_MOTION_DDOT":0},{"OBJECT_NAME":"CZ-2C R/B","OBJECT_ID":"2022-132E","EPOCH":"2026-04-26T17:42:16.204320","MEAN_MOTION":15.6626237,"ECCENTRICITY":0.0012865,"INCLINATION":97.2935,"RA_OF_ASC_NODE":121.6795,"ARG_OF_PERICENTER":267.4885,"MEAN_ANOMALY":92.4903,"EPHEMERIS_TYPE":0,"CLASSIFICATION_TYPE":"U","NORAD_CAT_ID":54039,"ELEMENT_SET_NO":999,"REV_AT_EPOCH":19788,"BSTAR":0.00054963,"MEAN_MOTION_DOT":0.00057075,"MEAN_MOTION_DDOT":0},{"OBJECT_NAME":"GSLV R/B","OBJECT_ID":"2022-138AN","EPOCH":"2026-04-26T12:25:39.867456","MEAN_MOTION":14.97030943,"ECCENTRICITY":0.00204753,"INCLINATION":87.3814,"RA_OF_ASC_NODE":150.3363,"ARG_OF_PERICENTER":344.7378,"MEAN_ANOMALY":15.3233,"EPHEMERIS_TYPE":0,"CLASSIFICATION_TYPE":"U","NORAD_CAT_ID":54149,"ELEMENT_SET_NO":999,"REV_AT_EPOCH":19108,"BSTAR":0.00021198946,"MEAN_MOTION_DOT":2.478e-5,"MEAN_MOTION_DDOT":0},{"OBJECT_NAME":"XRISM","OBJECT_ID":"2023-137A","EPOCH":"2026-04-26T18:33:00.505728","MEAN_MOTION":15.12013707,"ECCENTRICITY":0.000755,"INCLINATION":31.0026,"RA_OF_ASC_NODE":332.528,"ARG_OF_PERICENTER":165.1765,"MEAN_ANOMALY":194.9096,"EPHEMERIS_TYPE":0,"CLASSIFICATION_TYPE":"U","NORAD_CAT_ID":57800,"ELEMENT_SET_NO":999,"REV_AT_EPOCH":14507,"BSTAR":0.00037384,"MEAN_MOTION_DOT":6.684e-5,"MEAN_MOTION_DDOT":0},{"OBJECT_NAME":"ACS3","OBJECT_ID":"2024-077B","EPOCH":"2026-04-26T18:33:03.794112","MEAN_MOTION":13.91960921,"ECCENTRICITY":0.0060311,"INCLINATION":97.1821,"RA_OF_ASC_NODE":47.0845,"ARG_OF_PERICENTER":345.4053,"MEAN_ANOMALY":14.5369,"EPHEMERIS_TYPE":0,"CLASSIFICATION_TYPE":"U","NORAD_CAT_ID":59588,"ELEMENT_SET_NO":999,"REV_AT_EPOCH":10088,"BSTAR":0.030659,"MEAN_MOTION_DOT":0.00039866,"MEAN_MOTION_DDOT":0},{"OBJECT_NAME":"HTV-X1","OBJECT_ID":"2025-241A","EPOCH":"2026-04-22T23:48:46.558656","MEAN_MOTION":15.32728944,"ECCENTRICITY":0.00078219,"INCLINATION":51.6353,"RA_OF_ASC_NODE":219.4042,"ARG_OF_PERICENTER":344.1053,"MEAN_ANOMALY":15.9682,"EPHEMERIS_TYPE":0,"CLASSIFICATION_TYPE":"U","NORAD_CAT_ID":66174,"ELEMENT_SET_NO":999,"REV_AT_EPOCH":2773,"BSTAR":0.00014900059,"MEAN_MOTION_DOT":4.413e-5,"MEAN_MOTION_DDOT":0},{"OBJECT_NAME":"SZ-21 MODULE","OBJECT_ID":"2025-246C","EPOCH":"2026-04-26T16:53:00.098304","MEAN_MOTION":15.72262877,"ECCENTRICITY":0.000394,"INCLINATION":41.4732,"RA_OF_ASC_NODE":266.952,"ARG_OF_PERICENTER":331.6776,"MEAN_ANOMALY":28.3852,"EPHEMERIS_TYPE":0,"CLASSIFICATION_TYPE":"U","NORAD_CAT_ID":66515,"ELEMENT_SET_NO":999,"REV_AT_EPOCH":2562,"BSTAR":0.00033789,"MEAN_MOTION_DOT":0.0004598,"MEAN_MOTION_DDOT":0}]
